CCSDS_OMM_VERS = 2.0
CREATION_DATE  = 
ORIGINATOR     = 

OBJECT_NAME    = CORAL
OBJECT_ID      = 1998-067YA
CENTER_NAME    = EARTH
REF_FRAME      = TEME
TIME_SYSTEM    = UTC
MEAN_ELEMENT_THEORY = SGP/SGP4

EPOCH          = 2026-04-01T21:08:51.890496
MEAN_MOTION    = 15.58404282
ECCENTRICITY   = .0013287
INCLINATION    = 51.6293
RA_OF_ASC_NODE = 315.5246
ARG_OF_PERICENTER = 260.7117
MEAN_ANOMALY   = 99.2373

EPHEMERIS_TYPE = 0
CLASSIFICATION_TYPE = U
NORAD_CAT_ID   = 67684
ELEMENT_SET_NO = 999
REV_AT_EPOCH   = 840
BSTAR          = .12213E-2
MEAN_MOTION_DOT = .95741E-3
MEAN_MOTION_DDOT = 0

CCSDS_OMM_VERS = 2.0
CREATION_DATE  = 
ORIGINATOR     = 

OBJECT_NAME    = GXIBA-1
OBJECT_ID      = 1998-067YB
CENTER_NAME    = EARTH
REF_FRAME      = TEME
TIME_SYSTEM    = UTC
MEAN_ELEMENT_THEORY = SGP/SGP4

EPOCH          = 2026-04-01T21:14:06.336384
MEAN_MOTION    = 15.54391194
ECCENTRICITY   = .0012296
INCLINATION    = 51.6317
RA_OF_ASC_NODE = 316.2995
ARG_OF_PERICENTER = 267.6906
MEAN_ANOMALY   = 92.2676

EPHEMERIS_TYPE = 0
CLASSIFICATION_TYPE = U
NORAD_CAT_ID   = 67685
ELEMENT_SET_NO = 999
REV_AT_EPOCH   = 839
BSTAR          = .72618E-3
MEAN_MOTION_DOT = .48495E-3
MEAN_MOTION_DDOT = 0

CCSDS_OMM_VERS = 2.0
CREATION_DATE  = 
ORIGINATOR     = 

OBJECT_NAME    = UITMSAT-2
OBJECT_ID      = 1998-067YC
CENTER_NAME    = EARTH
REF_FRAME      = TEME
TIME_SYSTEM    = UTC
MEAN_ELEMENT_THEORY = SGP/SGP4

EPOCH          = 2026-04-01T20:49:18.528384
MEAN_MOTION    = 15.55443039
ECCENTRICITY   = .0009333
INCLINATION    = 51.6311
RA_OF_ASC_NODE = 316.1867
ARG_OF_PERICENTER = 241.1097
MEAN_ANOMALY   = 118.8958

EPHEMERIS_TYPE = 0
CLASSIFICATION_TYPE = U
NORAD_CAT_ID   = 67686
ELEMENT_SET_NO = 999
REV_AT_EPOCH   = 839
BSTAR          = .8524E-3
MEAN_MOTION_DOT = .59268E-3
MEAN_MOTION_DDOT = 0

CCSDS_OMM_VERS = 2.0
CREATION_DATE  = 
ORIGINATOR     = 

OBJECT_NAME    = HMU-SAT2
OBJECT_ID      = 1998-067YD
CENTER_NAME    = EARTH
REF_FRAME      = TEME
TIME_SYSTEM    = UTC
MEAN_ELEMENT_THEORY = SGP/SGP4

EPOCH          = 2026-04-01T21:22:10.189344
MEAN_MOTION    = 15.54129932
ECCENTRICITY   = .0008895
INCLINATION    = 51.6317
RA_OF_ASC_NODE = 316.3398
ARG_OF_PERICENTER = 243.7154
MEAN_ANOMALY   = 116.2923

EPHEMERIS_TYPE = 0
CLASSIFICATION_TYPE = U
NORAD_CAT_ID   = 67687
ELEMENT_SET_NO = 999
REV_AT_EPOCH   = 831
BSTAR          = .73195E-3
MEAN_MOTION_DOT = .48342E-3
MEAN_MOTION_DDOT = 0

CCSDS_OMM_VERS = 2.0
CREATION_DATE  = 
ORIGINATOR     = 

OBJECT_NAME    = LEOPARD
OBJECT_ID      = 1998-067YE
CENTER_NAME    = EARTH
REF_FRAME      = TEME
TIME_SYSTEM    = UTC
MEAN_ELEMENT_THEORY = SGP/SGP4

EPOCH          = 2026-04-01T21:00:36.852192
MEAN_MOTION    = 15.54964174
ECCENTRICITY   = .0009084
INCLINATION    = 51.6312
RA_OF_ASC_NODE = 316.2399
ARG_OF_PERICENTER = 241.2803
MEAN_ANOMALY   = 118.7275

EPHEMERIS_TYPE = 0
CLASSIFICATION_TYPE = U
NORAD_CAT_ID   = 67688
ELEMENT_SET_NO = 999
REV_AT_EPOCH   = 831
BSTAR          = .79652E-3
MEAN_MOTION_DOT = .54338E-3
MEAN_MOTION_DDOT = 0

CCSDS_OMM_VERS = 2.0
CREATION_DATE  = 
ORIGINATOR     = 

OBJECT_NAME    = CREW DRAGON 12
OBJECT_ID      = 2026-031A
CENTER_NAME    = EARTH
REF_FRAME      = TEME
TIME_SYSTEM    = UTC
MEAN_ELEMENT_THEORY = SGP/SGP4

EPOCH          = 2026-04-01T21:00:31.001184
MEAN_MOTION    = 15.48704904
ECCENTRICITY   = .0006234
INCLINATION    = 51.6332
RA_OF_ASC_NODE = 317.7346
ARG_OF_PERICENTER = 261.1210
MEAN_ANOMALY   = 98.9072

EPHEMERIS_TYPE = 0
CLASSIFICATION_TYPE = U
NORAD_CAT_ID   = 67796
ELEMENT_SET_NO = 999
REV_AT_EPOCH   = 55989
BSTAR          = .16662E-3
MEAN_MOTION_DOT = .8649E-4
MEAN_MOTION_DDOT = 0

CCSDS_OMM_VERS = 2.0
CREATION_DATE  = 
ORIGINATOR     = 

OBJECT_NAME    = PROGRESS-MS 33
OBJECT_ID      = 2026-058A
CENTER_NAME    = EARTH
REF_FRAME      = TEME
TIME_SYSTEM    = UTC
MEAN_ELEMENT_THEORY = SGP/SGP4

EPOCH          = 2026-04-01T21:00:31.001184
MEAN_MOTION    = 15.48704904
ECCENTRICITY   = .0006234
INCLINATION    = 51.6332
RA_OF_ASC_NODE = 317.7346
ARG_OF_PERICENTER = 261.1210
MEAN_ANOMALY   = 98.9072

EPHEMERIS_TYPE = 0
CLASSIFICATION_TYPE = U
NORAD_CAT_ID   = 68319
ELEMENT_SET_NO = 999
REV_AT_EPOCH   = 140
BSTAR          = .16662E-3
MEAN_MOTION_DOT = .8649E-4
MEAN_MOTION_DDOT = 0

